{
"type": "FeatureCollection",
"name": "terzigno_burned_area_convex_hull",
"crs": { "type": "name", "properties": { "name": "urn:ogc:def:crs:OGC:1.3:CRS84" } },
"features": [
{ "type": "Feature", "properties": { "name": "Terzigno_burned_area", "index": "dBAI", "threshold": 42.815539087185471, "area_ha": 526.415 }, "geometry": { "type": "Polygon", "coordinates": [ [ [ 14.434951798369292, 40.834780495725369 ], [ 14.435066577384058, 40.835231479515016 ], [ 14.435422387129176, 40.835233221347949 ], [ 14.437926750795247, 40.833623931899005 ], [ 14.438046111850515, 40.833534429015643 ], [ 14.440918247511283, 40.830485514292697 ], [ 14.442713763911289, 40.828512343988045 ], [ 14.442953208284447, 40.828243247011784 ], [ 14.446409577541099, 40.826187940972709 ], [ 14.45008876379999, 40.825845198489517 ], [ 14.450207350624325, 40.825845763672724 ], [ 14.451513290284707, 40.825671810673036 ], [ 14.452106964415339, 40.825584547043086 ], [ 14.453294308104777, 40.825410010584434 ], [ 14.453413633820661, 40.825320491447727 ], [ 14.456988113191739, 40.823265426147337 ], [ 14.459006209799623, 40.823004653225397 ], [ 14.459255079719076, 40.821564466583574 ], [ 14.459378779100508, 40.820934454080749 ], [ 14.461775830247104, 40.817792699168727 ], [ 14.46189513089212, 40.81770317098411 ], [ 14.463808974687767, 40.815640133534998 ], [ 14.465710414083185, 40.815108446249553 ], [ 14.465829704634624, 40.815018913891841 ], [ 14.465830427172159, 40.81492883252433 ], [ 14.465121191561209, 40.814655292587432 ], [ 14.464766937935503, 40.814473480313112 ], [ 14.463361556190767, 40.812304918616903 ], [ 14.466346562348553, 40.809706305175574 ], [ 14.467175750678793, 40.809800222153612 ], [ 14.467531426457809, 40.809801864121155 ], [ 14.467535747029611, 40.8092613752547 ], [ 14.468987162766002, 40.805664670791614 ], [ 14.4701705262574, 40.805940365413122 ], [ 14.470289078035375, 40.805940909738148 ], [ 14.471593147806862, 40.805946889274622 ], [ 14.471948803267029, 40.805948517499502 ], [ 14.472780804842813, 40.805682067590823 ], [ 14.472781517743805, 40.80559198597561 ], [ 14.472075207512258, 40.804958162311912 ], [ 14.471601721756072, 40.804865910054943 ], [ 14.47148317186589, 40.804865367090287 ], [ 14.471008257058124, 40.804953275614594 ], [ 14.469584939654567, 40.805036826250799 ], [ 14.466156370309612, 40.803849910697259 ], [ 14.465919996489781, 40.803758731935353 ], [ 14.461543194179891, 40.802567286231366 ], [ 14.461424648573912, 40.80256673295785 ], [ 14.457497241900377, 40.804440116516233 ], [ 14.457494307728826, 40.804800442141406 ], [ 14.457731406739276, 40.804801556692389 ], [ 14.459036914459048, 40.804627515159133 ], [ 14.461525720806003, 40.804729241788543 ], [ 14.463416708128646, 40.805458730165306 ], [ 14.464702671094738, 40.807716824373408 ], [ 14.462907643625417, 40.809780433028543 ], [ 14.458167505748658, 40.809488015938584 ], [ 14.45757545006415, 40.809395149294268 ], [ 14.457101219369399, 40.809392918858798 ], [ 14.454257312406909, 40.809199332747298 ], [ 14.453191776104324, 40.80901411831848 ], [ 14.453073219190243, 40.809013556392344 ], [ 14.449176485638672, 40.807103238718192 ], [ 14.449180954717328, 40.806562751238637 ], [ 14.44894459493243, 40.806471537829886 ], [ 14.444572431897512, 40.804738962323043 ], [ 14.444454633941712, 40.804648310381154 ], [ 14.440787178723609, 40.80372974568494 ], [ 14.4384230678425, 40.802907500089773 ], [ 14.438304522091515, 40.802906923059361 ], [ 14.434864404515999, 40.803160379460863 ], [ 14.434856763308535, 40.8040611902343 ], [ 14.43484606503714, 40.805322325078087 ], [ 14.434839951434885, 40.806042973435055 ], [ 14.434812437485583, 40.809285889914506 ], [ 14.434808615749207, 40.809736294835261 ], [ 14.434806322665874, 40.810006537770633 ], [ 14.434804793926354, 40.81018669972044 ], [ 14.43491953145308, 40.810637685289883 ], [ 14.435036562745939, 40.810818427825119 ], [ 14.435389187636257, 40.811180492778618 ], [ 14.435743342628262, 40.811362394720476 ], [ 14.437279305155883, 40.81200048901669 ], [ 14.436183269898786, 40.815418355551977 ], [ 14.43618174459278, 40.815598517375001 ], [ 14.436038764394137, 40.818480526230346 ], [ 14.436036475596712, 40.818750768812137 ], [ 14.436123772733021, 40.822444662432645 ], [ 14.436122246888472, 40.822624824033703 ], [ 14.436595045561416, 40.822807302917795 ], [ 14.438947690907913, 40.82507088066977 ], [ 14.437739775026808, 40.827677449913722 ], [ 14.436905836222865, 40.828123804862855 ], [ 14.436783434697286, 40.828573629579907 ], [ 14.436782672504707, 40.828663710295359 ], [ 14.437368777758003, 40.829477329996507 ], [ 14.437218956903644, 40.833170059458446 ], [ 14.434954092863761, 40.834510253947386 ], [ 14.434951798369292, 40.834780495725369 ] ] ] } }
]
}
